{"type": "FeatureCollection", "features": [ {"type": "Feature", "properties": {"norad_id": 39019, "name": "PLEIADES 1B", "group": "resource", "lat": 13.28970006839293, "lon": -110.91552578954295, "alt_km": 698.8029184275256, "timestamp": "2025-12-20T14:38:01.615420+00:00", "meta": {"OBJECT_NAME": "PLEIADES 1B", "OBJECT_ID": "2012-068A", "EPOCH": "2025-12-20T07:17:14.749152", "MEAN_MOTION": 14.58559047, "ECCENTRICITY": 0.00011736, "INCLINATION": 98.1793, "RA_OF_ASC_NODE": 66.8364, "ARG_OF_PERICENTER": 86.2016, "MEAN_ANOMALY": 273.9318, "EPHEMERIS_TYPE": 0, "CLASSIFICATION_TYPE": "U", "NORAD_CAT_ID": 39019, "ELEMENT_SET_NO": 999, "REV_AT_EPOCH": 69477, "BSTAR": 5.3845844e-05, "MEAN_MOTION_DOT": 2.05e-06, "MEAN_MOTION_DDOT": 0}, "tle": {"line1": "1 39019U 12068A   25354.30364293  .00000205  00000+0  53846-4 0  9994", "line2": "2 39019  98.1793  66.8364 0001173  86.2016 273.9318 14.58559047694773"}}, "geometry": {"type": "Point", "coordinates": [-110.91552578954295, 13.28970006839293]}}, {"type": "Feature", "properties": {"norad_id": 39030, "name": "GOKTURK 2", "group": "resource", "lat": 44.323717354586904, "lon": 23.457534467159174, "alt_km": 639.6850124582179, "timestamp": "2025-12-20T14:38:01.615432+00:00", "meta": {"OBJECT_NAME": "GOKTURK 2", "OBJECT_ID": "2012-073A", "EPOCH": "2025-12-20T05:53:04.951680", "MEAN_MOTION": 14.75298988, "ECCENTRICITY": 0.0001269, "INCLINATION": 97.6887, "RA_OF_ASC_NODE": 195.5292, "ARG_OF_PERICENTER": 107.7326, "MEAN_ANOMALY": 252.4023, "EPHEMERIS_TYPE": 0, "CLASSIFICATION_TYPE": "U", "NORAD_CAT_ID": 39030, "ELEMENT_SET_NO": 999, "REV_AT_EPOCH": 69812, "BSTAR": 8.37185e-07, "MEAN_MOTION_DOT": -4.1e-07, "MEAN_MOTION_DDOT": 0}, "tle": {"line1": "1 39030U 12073A   25354.24519620 -.00000041  00000+0  83719-6 0  9995", "line2": "2 39030  97.6887 195.5292 0001269 107.7326 252.4023 14.75298988698124"}}, "geometry": {"type": "Point", "coordinates": [23.457534467159174, 44.323717354586904]}}, {"type": "Feature", "properties": {"norad_id": 39084, "name": "LANDSAT 8", "group": "resource", "lat": -63.189848698807694, "lon": 79.1589272644254, "alt_km": 710.394077945416, "timestamp": "2025-12-20T14:38:01.615442+00:00", "meta": {"OBJECT_NAME": "LANDSAT 8", "OBJECT_ID": "2013-008A", "EPOCH": "2025-12-20T03:23:32.556192", "MEAN_MOTION": 14.57109573, "ECCENTRICITY": 0.00010827, "INCLINATION": 98.2063, "RA_OF_ASC_NODE": 62.1053, "ARG_OF_PERICENTER": 90.5011, "MEAN_ANOMALY": 269.6312, "EPHEMERIS_TYPE": 0, "CLASSIFICATION_TYPE": "U", "NORAD_CAT_ID": 39084, "ELEMENT_SET_NO": 999, "REV_AT_EPOCH": 67182, "BSTAR": 7.4801417e-05, "MEAN_MOTION_DOT": 2.92e-06, "MEAN_MOTION_DDOT": 0}, "tle": {"line1": "1 39084U 13008A   25354.14134903  .00000292  00000+0  74801-4 0  9996", "line2": "2 39084  98.2063  62.1053 0001082  90.5011 269.6312 14.57109573671823"}}, "geometry": {"type": "Point", "coordinates": [79.1589272644254, -63.189848698807694]}}, {"type": "Feature", "properties": {"norad_id": 39086, "name": "SARAL", "group": "resource", "lat": -46.92641944323567, "lon": -172.30267499050296, "alt_km": 790.9297758001503, "timestamp": "2025-12-20T14:38:01.615453+00:00", "meta": {"OBJECT_NAME": "SARAL", "OBJECT_ID": "2013-009A", "EPOCH": "2025-12-20T04:47:57.846048", "MEAN_MOTION": 14.32759433, "ECCENTRICITY": 0.00029585, "INCLINATION": 98.5502, "RA_OF_ASC_NODE": 178.033, "ARG_OF_PERICENTER": 94.5204, "MEAN_ANOMALY": 265.6318, "EPHEMERIS_TYPE": 0, "CLASSIFICATION_TYPE": "U", "NORAD_CAT_ID": 39086, "ELEMENT_SET_NO": 999, "REV_AT_EPOCH": 66997, "BSTAR": 4.7774178e-05, "MEAN_MOTION_DOT": 8.6e-07, "MEAN_MOTION_DDOT": 0}, "tle": {"line1": "1 39086U 13009A   25354.19997507  .00000086  00000+0  47774-4 0  9991", "line2": "2 39086  98.5502 178.0330 0002958  94.5204 265.6318 14.32759433669976"}}, "geometry": {"type": "Point", "coordinates": [-172.30267499050296, -46.92641944323567]}}, {"type": "Feature", "properties": {"norad_id": 39150, "name": "GAOFEN-1", "group": "resource", "lat": -67.02113651914581, "lon": -134.0668675356789, "alt_km": 655.8041398297892, "timestamp": "2025-12-20T14:38:01.615464+00:00", "meta": {"OBJECT_NAME": "GAOFEN-1", "OBJECT_ID": "2013-018A", "EPOCH": "2025-12-20T07:00:29.390976", "MEAN_MOTION": 14.76491723, "ECCENTRICITY": 0.00183699, "INCLINATION": 97.9325, "RA_OF_ASC_NODE": 64.8183, "ARG_OF_PERICENTER": 120.1536, "MEAN_ANOMALY": 240.1497, "EPHEMERIS_TYPE": 0, "CLASSIFICATION_TYPE": "U", "NORAD_CAT_ID": 39150, "ELEMENT_SET_NO": 999, "REV_AT_EPOCH": 68184, "BSTAR": 6.3225137e-05, "MEAN_MOTION_DOT": 3.9e-06, "MEAN_MOTION_DDOT": 0}, "tle": {"line1": "1 39150U 13018A   25354.29200684  .00000390  00000+0  63225-4 0  9994", "line2": "2 39150  97.9325  64.8183 0018369 120.1536 240.1497 14.76491723681848"}}, "geometry": {"type": "Point", "coordinates": [-134.0668675356789, -67.02113651914581]}}, {"type": "Feature", "properties": {"norad_id": 39160, "name": "VNREDSAT 1", "group": "resource", "lat": -17.508712861809126, "lon": 52.13173528356359, "alt_km": 682.3699554000423, "timestamp": "2025-12-20T14:38:01.615474+00:00", "meta": {"OBJECT_NAME": "VNREDSAT 1", "OBJECT_ID": "2013-021B", "EPOCH": "2025-12-20T06:31:04.454112", "MEAN_MOTION": 14.64934154, "ECCENTRICITY": 0.0001203, "INCLINATION": 97.9369, "RA_OF_ASC_NODE": 49.283, "ARG_OF_PERICENTER": 81.3542, "MEAN_ANOMALY": 278.7798, "EPHEMERIS_TYPE": 0, "CLASSIFICATION_TYPE": "U", "NORAD_CAT_ID": 39160, "ELEMENT_SET_NO": 999, "REV_AT_EPOCH": 67409, "BSTAR": 0.00014107452, "MEAN_MOTION_DOT": 7.09e-06, "MEAN_MOTION_DDOT": 0}, "tle": {"line1": "1 39160U 13021B   25354.27157933  .00000709  00000+0  14107-3 0  9993", "line2": "2 39160  97.9369  49.2830 0001203  81.3542 278.7798 14.64934154674094"}}, "geometry": {"type": "Point", "coordinates": [52.13173528356359, -17.508712861809126]}}, {"type": "Feature", "properties": {"norad_id": 39227, "name": "ARIRANG-5 (KOMPSAT-5)", "group": "resource", "lat": 76.76153201895094, "lon": 33.4606366554025, "alt_km": 544.6789206688436, "timestamp": "2025-12-20T14:38:01.615484+00:00", "meta": {"OBJECT_NAME": "ARIRANG-5 (KOMPSAT-5)", "OBJECT_ID": "2013-042A", "EPOCH": "2025-12-20T06:12:23.838336", "MEAN_MOTION": 15.04537289, "ECCENTRICITY": 0.0003424, "INCLINATION": 97.6153, "RA_OF_ASC_NODE": 178.4544, "ARG_OF_PERICENTER": 37.4126, "MEAN_ANOMALY": 322.7338, "EPHEMERIS_TYPE": 0, "CLASSIFICATION_TYPE": "U", "NORAD_CAT_ID": 39227, "ELEMENT_SET_NO": 999, "REV_AT_EPOCH": 67695, "BSTAR": 0.00012839227, "MEAN_MOTION_DOT": 1.738e-05, "MEAN_MOTION_DDOT": 0}, "tle": {"line1": "1 39227U 13042A   25354.25860924  .00001738  00000+0  12839-3 0  9992", "line2": "2 39227  97.6153 178.4544 0003424  37.4126 322.7338 15.04537289676950"}}, "geometry": {"type": "Point", "coordinates": [33.4606366554025, 76.76153201895094]}}, {"type": "Feature", "properties": {"norad_id": 39418, "name": "SKYSAT-A", "group": "resource", "lat": -44.52059063493298, "lon": 51.93217386483033, "alt_km": 542.1721083388602, "timestamp": "2025-12-20T14:38:01.615495+00:00", "meta": {"OBJECT_NAME": "SKYSAT-A", "OBJECT_ID": "2013-066C", "EPOCH": "2025-12-20T02:07:24.987360", "MEAN_MOTION": 15.11653345, "ECCENTRICITY": 0.0021262, "INCLINATION": 97.4098, "RA_OF_ASC_NODE": 44.0738, "ARG_OF_PERICENTER": 209.9149, "MEAN_ANOMALY": 150.0868, "EPHEMERIS_TYPE": 0, "CLASSIFICATION_TYPE": "U", "NORAD_CAT_ID": 39418, "ELEMENT_SET_NO": 999, "REV_AT_EPOCH": 66141, "BSTAR": 0.00017332643, "MEAN_MOTION_DOT": 2.899e-05, "MEAN_MOTION_DDOT": 0}, "tle": {"line1": "1 39418U 13066C   25354.08848365  .00002899  00000+0  17333-3 0  9999", "line2": "2 39418  97.4098  44.0738 0021262 209.9149 150.0868 15.11653345661417"}}, "geometry": {"type": "Point", "coordinates": [51.93217386483033, -44.52059063493298]}}, {"type": "Feature", "properties": {"norad_id": 39419, "name": "DUBAISAT-2", "group": "resource", "lat": 5.3590163677595335, "lon": -15.927734491651925, "alt_km": 541.4858598164319, "timestamp": "2025-12-20T14:38:01.615505+00:00", "meta": {"OBJECT_NAME": "DUBAISAT-2", "OBJECT_ID": "2013-066D", "EPOCH": "2025-12-20T06:38:58.353792", "MEAN_MOTION": 15.08421014, "ECCENTRICITY": 0.00099688, "INCLINATION": 97.4442, "RA_OF_ASC_NODE": 344.4526, "ARG_OF_PERICENTER": 292.428, "MEAN_ANOMALY": 67.5892, "EPHEMERIS_TYPE": 0, "CLASSIFICATION_TYPE": "U", "NORAD_CAT_ID": 39419, "ELEMENT_SET_NO": 999, "REV_AT_EPOCH": 65940, "BSTAR": 0.00016958715, "MEAN_MOTION_DOT": 2.58e-05, "MEAN_MOTION_DDOT": 0}, "tle": {"line1": "1 39419U 13066D   25354.27706428  .00002580  00000+0  16959-3 0  9994", "line2": "2 39419  97.4442 344.4526 0009968 292.4280  67.5892 15.08421014659402"}}, "geometry": {"type": "Point", "coordinates": [-15.927734491651925, 5.3590163677595335]}}, {"type": "Feature", "properties": {"norad_id": 39574, "name": "GPM-CORE", "group": "resource", "lat": 59.26652855939747, "lon": -45.47405579617429, "alt_km": 430.7411402599155, "timestamp": "2025-12-20T14:38:01.615516+00:00", "meta": {"OBJECT_NAME": "GPM-CORE", "OBJECT_ID": "2014-009C", "EPOCH": "2025-12-20T03:17:17.010816", "MEAN_MOTION": 15.44570936, "ECCENTRICITY": 0.00093991, "INCLINATION": 64.9718, "RA_OF_ASC_NODE": 187.9101, "ARG_OF_PERICENTER": 248.018, "MEAN_ANOMALY": 111.9962, "EPHEMERIS_TYPE": 0, "CLASSIFICATION_TYPE": "U", "NORAD_CAT_ID": 39574, "ELEMENT_SET_NO": 999, "REV_AT_EPOCH": 67015, "BSTAR": 0.00012334534, "MEAN_MOTION_DOT": 5.517e-05, "MEAN_MOTION_DDOT": 0}, "tle": {"line1": "1 39574U 14009C   25354.13700244  .00005517  00000+0  12335-3 0  9996", "line2": "2 39574  64.9718 187.9101 0009399 248.0180 111.9962 15.44570936670157"}}, "geometry": {"type": "Point", "coordinates": [-45.47405579617429, 59.26652855939747]}}]}